{
  "links" : {
    "next" : "https://api.nasa.gov/neo/rest/v1/feed?start_date=1997-11-09&end_date=1997-11-09&detailed=true&api_key=t0TVs3DtDT2H8Oy2Zy8m2eVrNsAVKAexjcZXUckd",
    "prev" : "https://api.nasa.gov/neo/rest/v1/feed?start_date=1997-11-07&end_date=1997-11-07&detailed=true&api_key=t0TVs3DtDT2H8Oy2Zy8m2eVrNsAVKAexjcZXUckd",
    "self" : "https://api.nasa.gov/neo/rest/v1/feed?start_date=1997-11-08&end_date=1997-11-08&detailed=true&api_key=t0TVs3DtDT2H8Oy2Zy8m2eVrNsAVKAexjcZXUckd"
  },
  "element_count" : 4,
  "near_earth_objects" : {
    "1997-11-08" : [ {
      "links" : {
        "self" : "https://api.nasa.gov/neo/rest/v1/neo/3432563?api_key=t0TVs3DtDT2H8Oy2Zy8m2eVrNsAVKAexjcZXUckd"
      },
      "neo_reference_id" : "3432563",
      "name" : "(2008 UC)",
      "nasa_jpl_url" : "http://ssd.jpl.nasa.gov/sbdb.cgi?sstr=3432563",
      "absolute_magnitude_h" : 18.9,
      "estimated_diameter" : {
        "kilometers" : {
          "estimated_diameter_min" : 0.4411182,
          "estimated_diameter_max" : 0.9863702813
        },
        "meters" : {
          "estimated_diameter_min" : 441.1181999969,
          "estimated_diameter_max" : 986.3702813054
        },
        "miles" : {
          "estimated_diameter_min" : 0.2740980571,
          "estimated_diameter_max" : 0.6129018881
        },
        "feet" : {
          "estimated_diameter_min" : 1447.2382352778,
          "estimated_diameter_max" : 3236.1230737181
        }
      },
      "is_potentially_hazardous_asteroid" : false,
      "close_approach_data" : [ {
        "close_approach_date" : "1997-11-08",
        "epoch_date_close_approach" : 878976000000,
        "relative_velocity" : {
          "kilometers_per_second" : "16.1921084529",
          "kilometers_per_hour" : "58291.5904302802",
          "miles_per_hour" : "36220.1273981927"
        },
        "miss_distance" : {
          "astronomical" : "0.4935414212",
          "lunar" : "191.9876098633",
          "kilometers" : "73832744",
          "miles" : "45877540"
        },
        "orbiting_body" : "Earth"
      } ],
      "orbital_data" : {
        "orbit_id" : "35",
        "orbit_determination_date" : "2017-04-06 09:02:33",
        "orbit_uncertainty" : "1",
        "minimum_orbit_intersection" : ".110975",
        "jupiter_tisserand_invariant" : "3.714",
        "epoch_osculation" : "2458000.5",
        "eccentricity" : ".4526155811945477",
        "semi_major_axis" : "1.976298241814661",
        "inclination" : "10.25057796250919",
        "ascending_node_longitude" : "99.231767889298",
        "orbital_period" : "1014.792276750923",
        "perihelion_distance" : "1.081794864481955",
        "perihelion_argument" : "338.0013652847376",
        "aphelion_distance" : "2.870801619147367",
        "perihelion_time" : "2457868.857375452358",
        "mean_anomaly" : "46.70053756112995",
        "mean_motion" : ".3547524042581578",
        "equinox" : "J2000"
      }
    }, {
      "links" : {
        "self" : "https://api.nasa.gov/neo/rest/v1/neo/3432642?api_key=t0TVs3DtDT2H8Oy2Zy8m2eVrNsAVKAexjcZXUckd"
      },
      "neo_reference_id" : "3432642",
      "name" : "(2008 UX)",
      "nasa_jpl_url" : "http://ssd.jpl.nasa.gov/sbdb.cgi?sstr=3432642",
      "absolute_magnitude_h" : 20.7,
      "estimated_diameter" : {
        "kilometers" : {
          "estimated_diameter_min" : 0.1925550782,
          "estimated_diameter_max" : 0.4305662442
        },
        "meters" : {
          "estimated_diameter_min" : 192.5550781879,
          "estimated_diameter_max" : 430.566244241
        },
        "miles" : {
          "estimated_diameter_min" : 0.1196481415,
          "estimated_diameter_max" : 0.2675413778
        },
        "feet" : {
          "estimated_diameter_min" : 631.7424027221,
          "estimated_diameter_max" : 1412.6189567557
        }
      },
      "is_potentially_hazardous_asteroid" : false,
      "close_approach_data" : [ {
        "close_approach_date" : "1997-11-08",
        "epoch_date_close_approach" : 878976000000,
        "relative_velocity" : {
          "kilometers_per_second" : "24.5190113853",
          "kilometers_per_hour" : "88268.4409869752",
          "miles_per_hour" : "54846.5765677125"
        },
        "miss_distance" : {
          "astronomical" : "0.1303531128",
          "lunar" : "50.707359314",
          "kilometers" : "19500548",
          "miles" : "12117078"
        },
        "orbiting_body" : "Earth"
      } ],
      "orbital_data" : {
        "orbit_id" : "30",
        "orbit_determination_date" : "2017-04-06 09:02:31",
        "orbit_uncertainty" : "1",
        "minimum_orbit_intersection" : ".0787175",
        "jupiter_tisserand_invariant" : "6.904",
        "epoch_osculation" : "2458000.5",
        "eccentricity" : ".6813260885514996",
        "semi_major_axis" : ".8174906150922439",
        "inclination" : "21.74123303927831",
        "ascending_node_longitude" : "37.55604628047293",
        "orbital_period" : "269.9744034889082",
        "perihelion_distance" : ".2605129318838859",
        "perihelion_argument" : "158.1216185616643",
        "aphelion_distance" : "1.374468298300602",
        "perihelion_time" : "2458101.469457926239",
        "mean_anomaly" : "225.3612920939759",
        "mean_motion" : "1.333459747841578",
        "equinox" : "J2000"
      }
    }, {
      "links" : {
        "self" : "https://api.nasa.gov/neo/rest/v1/neo/3507181?api_key=t0TVs3DtDT2H8Oy2Zy8m2eVrNsAVKAexjcZXUckd"
      },
      "neo_reference_id" : "3507181",
      "name" : "(2010 CT)",
      "nasa_jpl_url" : "http://ssd.jpl.nasa.gov/sbdb.cgi?sstr=3507181",
      "absolute_magnitude_h" : 20.2,
      "estimated_diameter" : {
        "kilometers" : {
          "estimated_diameter_min" : 0.2424124811,
          "estimated_diameter_max" : 0.5420507863
        },
        "meters" : {
          "estimated_diameter_min" : 242.4124811008,
          "estimated_diameter_max" : 542.0507863358
        },
        "miles" : {
          "estimated_diameter_min" : 0.1506280858,
          "estimated_diameter_max" : 0.3368146392
        },
        "feet" : {
          "estimated_diameter_min" : 795.3165644948,
          "estimated_diameter_max" : 1778.3819018419
        }
      },
      "is_potentially_hazardous_asteroid" : false,
      "close_approach_data" : [ {
        "close_approach_date" : "1997-11-08",
        "epoch_date_close_approach" : 878976000000,
        "relative_velocity" : {
          "kilometers_per_second" : "20.3419682442",
          "kilometers_per_hour" : "73231.0856792194",
          "miles_per_hour" : "45502.9487655127"
        },
        "miss_distance" : {
          "astronomical" : "0.2938584321",
          "lunar" : "114.3109359741",
          "kilometers" : "43960596",
          "miles" : "27315848"
        },
        "orbiting_body" : "Earth"
      } ],
      "orbital_data" : {
        "orbit_id" : "15",
        "orbit_determination_date" : "2017-04-06 08:58:30",
        "orbit_uncertainty" : "1",
        "minimum_orbit_intersection" : ".170914",
        "jupiter_tisserand_invariant" : "6.446",
        "epoch_osculation" : "2458000.5",
        "eccentricity" : ".6576510508443212",
        "semi_major_axis" : ".8878698200484563",
        "inclination" : "19.75740081489791",
        "ascending_node_longitude" : "176.0811459989885",
        "orbital_period" : "305.5781996025896",
        "perihelion_distance" : ".3039612998806306",
        "perihelion_argument" : "104.303385595727",
        "aphelion_distance" : "1.471778340216282",
        "perihelion_time" : "2458048.644324486931",
        "mean_anomaly" : "303.2814355283339",
        "mean_motion" : "1.178094512200762",
        "equinox" : "J2000"
      }
    }, {
      "links" : {
        "self" : "https://api.nasa.gov/neo/rest/v1/neo/3648202?api_key=t0TVs3DtDT2H8Oy2Zy8m2eVrNsAVKAexjcZXUckd"
      },
      "neo_reference_id" : "3648202",
      "name" : "(2013 RX73)",
      "nasa_jpl_url" : "http://ssd.jpl.nasa.gov/sbdb.cgi?sstr=3648202",
      "absolute_magnitude_h" : 25.0,
      "estimated_diameter" : {
        "kilometers" : {
          "estimated_diameter_min" : 0.02658,
          "estimated_diameter_max" : 0.0594346868
        },
        "meters" : {
          "estimated_diameter_min" : 26.58,
          "estimated_diameter_max" : 59.4346868419
        },
        "miles" : {
          "estimated_diameter_min" : 0.0165160412,
          "estimated_diameter_max" : 0.0369309908
        },
        "feet" : {
          "estimated_diameter_min" : 87.2047272,
          "estimated_diameter_max" : 194.9956979785
        }
      },
      "is_potentially_hazardous_asteroid" : false,
      "close_approach_data" : [ {
        "close_approach_date" : "1997-11-08",
        "epoch_date_close_approach" : 878976000000,
        "relative_velocity" : {
          "kilometers_per_second" : "11.1875206924",
          "kilometers_per_hour" : "40275.0744927858",
          "miles_per_hour" : "25025.3650369202"
        },
        "miss_distance" : {
          "astronomical" : "0.3540160331",
          "lunar" : "137.7122344971",
          "kilometers" : "52960044",
          "miles" : "32907846"
        },
        "orbiting_body" : "Earth"
      } ],
      "orbital_data" : {
        "orbit_id" : "13",
        "orbit_determination_date" : "2017-04-06 08:44:41",
        "orbit_uncertainty" : "5",
        "minimum_orbit_intersection" : ".064692",
        "jupiter_tisserand_invariant" : "4.805",
        "epoch_osculation" : "2458000.5",
        "eccentricity" : ".2287897198310263",
        "semi_major_axis" : "1.365699340310007",
        "inclination" : "3.661460240783432",
        "ascending_node_longitude" : "170.5660885660062",
        "orbital_period" : "582.9496908337308",
        "perihelion_distance" : "1.053241370867063",
        "perihelion_argument" : "216.5344761691647",
        "aphelion_distance" : "1.678157309752951",
        "perihelion_time" : "2457752.345553920069",
        "mean_anomaly" : "153.2475306076721",
        "mean_motion" : ".6175490023592437",
        "equinox" : "J2000"
      }
    } ]
  }
}